ORBCOMM FM37 [-]        
1 33064U 08031E   23256.04006743  .00002485  00000+0  39518-3 0  9997
2 33064  48.4405 149.0258 0005842 146.6615 304.9578 14.75029057819284
ORBCOMM FM40 [-]        
1 33065U 08031F   23255.81105963  .00003103  00000+0  47482-3 0  9993
2 33065  48.4429 141.5284 0007294 152.8674 246.5968 14.76042417818946
VESSELSAT 1 [-]         
1 37840U 11058C   23256.42884795  .00000435  00000+0  93438-4 0  9994
2 37840  19.9633  22.2407 0013695 318.5453  41.3912 14.11058383615630
ORBCOMM FM109 [+]       
1 40086U 14040A   23256.30086901  .00001487  00000+0  37305-3 0  9992
2 40086  47.0035 166.8216 0002359 254.5680 105.4944 14.55892277487431
ORBCOMM FM107 [+]       
1 40087U 14040B   23255.23702846  .00001147  00000+0  29652-3 0  9996
2 40087  47.0054 172.7549 0001454 221.8856 138.1917 14.55886848487233
ORBCOMM FM106 [-]       
1 40088U 14040C   23256.43770745  .00001780  00000+0  35423-3 0  9999
2 40088  47.0628  37.6612 0018425 325.0275  34.9404 14.65966466489275
ORBCOMM FM111 [-]       
1 40089U 14040D   23256.36594052  .00002904  00000+0  40427-3 0  9996
2 40089  47.0061 326.6125 0033437   6.7809 353.3532 14.79903850494823
ORBCOMM FM104 [-]       
1 40090U 14040E   23256.13447605  .00001109  00000+0  29652-3 0  9997
2 40090  47.0051 194.8182 0016637 152.0243 208.1539 14.54453300487045
